CTC2_L_00586001-01
1 10000U 23834FW  26075.70049769  .00000000  00000+0  00000-0 0  9992
2 10000  55.0000   0.0000 0000000   0.0000   0.0000  7.15312845    10
CTC2_L_00586001-02
1 10001U 25903AL  26075.70049769  .00000000  00000+0  00000-0 0  9992
2 10001  55.0000   0.0000 0000000   0.0000  36.0000  7.15312845    10
CTC2_L_00586001-03
1 10002U 25715YI  26075.70049769  .00000000  00000+0  00000-0 0  9994
2 10002  55.0000   0.0000 0000000   0.0000  72.0000  7.15312845    11
CTC2_L_00586001-04
1 10003U 23117XJ  26075.70049769  .00000000  00000+0  00000-0 0  9999
2 10003  55.0000   0.0000 0000000   0.0000 108.0000  7.15312845    12
CTC2_L_00586001-05
1 10004U 26505NW  26075.70049769  .00000000  00000+0  00000-0 0  9994
2 10004  55.0000   0.0000 0000000   0.0000 144.0000  7.15312845    13
CTC2_L_00586001-06
1 10005U 23331OA  26075.70049769  .00000000  00000+0  00000-0 0  9999
2 10005  55.0000   0.0000 0000000   0.0000 180.0000  7.15312845    14
CTC2_L_00586001-07
1 10006U 24071L   26075.70049769  .00000000  00000+0  00000-0 0  9992
2 10006  55.0000   0.0000 0000000   0.0000 216.0000  7.15312845    15
CTC2_L_00586001-08
1 10007U 22407UE  26075.70049769  .00000000  00000+0  00000-0 0  9994
2 10007  55.0000   0.0000 0000000   0.0000 252.0000  7.15312845    16
CTC2_L_00586001-09
1 10008U 22361JD  26075.70049769  .00000000  00000+0  00000-0 0  9994
2 10008  55.0000   0.0000 0000000   0.0000 288.0000  7.15312845    16
CTC2_L_00586001-10
1 10009U 23435SR  26075.70049769  .00000000  00000+0  00000-0 0  9998
2 10009  55.0000   0.0000 0000000   0.0000 324.0000  7.15312845    18
CTC2_L_00586002-01
1 10010U 26564PR  26075.70049769  .00000000  00000+0  00000-0 0  9996
2 10010  55.0000  30.0000 0000000   0.0000  12.0000  7.15312845    17
CTC2_L_00586002-02
1 10011U 25443WG  26075.70049769  .00000000  00000+0  00000-0 0  9992
2 10011  55.0000  30.0000 0000000   0.0000  48.0000  7.15312845    17
CTC2_L_00586002-03
1 10012U 24788LP  26075.70049769  .00000000  00000+0  00000-0 0  9994
2 10012  55.0000  30.0000 0000000   0.0000  84.0000  7.15312845    18
CTC2_L_00586002-04
1 10013U 23282HH  26075.70049769  .00000000  00000+0  00000-0 0  9993
2 10013  55.0000  30.0000 0000000   0.0000 120.0000  7.15312845    10
CTC2_L_00586002-05
1 10014U 23001JQ  26075.70049769  .00000000  00000+0  00000-0 0  9993
2 10014  55.0000  30.0000 0000000   0.0000 156.0000  7.15312845    10
CTC2_L_00586002-06
1 10015U 25938OQ  26075.70049769  .00000000  00000+0  00000-0 0  9995
2 10015  55.0000  30.0000 0000000   0.0000 192.0000  7.15312845    11
CTC2_L_00586002-07
1 10016U 25419VG  26075.70049769  .00000000  00000+0  00000-0 0  9990
2 10016  55.0000  30.0000 0000000   0.0000 228.0000  7.15312845    12
CTC2_L_00586002-08
1 10017U 23479FZ  26075.70049769  .00000000  00000+0  00000-0 0  9995
2 10017  55.0000  30.0000 0000000   0.0000 264.0000  7.15312845    13
CTC2_L_00586002-09
1 10018U 24641LM  26075.70049769  .00000000  00000+0  00000-0 0  9998
2 10018  55.0000  30.0000 0000000   0.0000 300.0000  7.15312845    15
CTC2_L_00586002-10
1 10019U 22080II  26075.70049769  .00000000  00000+0  00000-0 0  9994
2 10019  55.0000  30.0000 0000000   0.0000 336.0000  7.15312845    15
CTC2_L_00586003-01
1 10020U 22386EX  26075.70049769  .00000000  00000+0  00000-0 0  9995
2 10020  55.0000  60.0000 0000000   0.0000  24.0000  7.15312845    14
CTC2_L_00586003-02
1 10021U 22705ZT  26075.70049769  .00000000  00000+0  00000-0 0  9991
2 10021  55.0000  60.0000 0000000   0.0000  60.0000  7.15312845    15
CTC2_L_00586003-03
1 10022U 25623TC  26075.70049769  .00000000  00000+0  00000-0 0  9994
2 10022  55.0000  60.0000 0000000   0.0000  96.0000  7.15312845    15
CTC2_L_00586003-04
1 10023U 26751KM  26075.70049769  .00000000  00000+0  00000-0 0  9998
2 10023  55.0000  60.0000 0000000   0.0000 132.0000  7.15312845    17
CTC2_L_00586003-05
1 10024U 26115II  26075.70049769  .00000000  00000+0  00000-0 0  9993
2 10024  55.0000  60.0000 0000000   0.0000 168.0000  7.15312845    17
CTC2_L_00586003-06
1 10025U 26688FB  26075.70049769  .00000000  00000+0  00000-0 0  9999
2 10025  55.0000  60.0000 0000000   0.0000 204.0000  7.15312845    19
CTC2_L_00586003-07
1 10026U 24180IB  26075.70049769  .00000000  00000+0  00000-0 0  9995
2 10026  55.0000  60.0000 0000000   0.0000 240.0000  7.15312845    10
CTC2_L_00586003-08
1 10027U 25824BP  26075.70049769  .00000000  00000+0  00000-0 0  9992
2 10027  55.0000  60.0000 0000000   0.0000 276.0000  7.15312845    10
CTC2_L_00586003-09
1 10028U 24526NJ  26075.70049769  .00000000  00000+0  00000-0 0  9991
2 10028  55.0000  60.0000 0000000   0.0000 312.0000  7.15312845    12
CTC2_L_00586003-10
1 10029U 25728DS  26075.70049769  .00000000  00000+0  00000-0 0  9997
2 10029  55.0000  60.0000 0000000   0.0000 348.0000  7.15312845    12
CTC2_L_00586004-01
1 10030U 23602VL  26075.70049769  .00000000  00000+0  00000-0 0  9998
2 10030  55.0000  90.0000 0000000   0.0000  36.0000  7.15312845    11
CTC2_L_00586004-02
1 10031U 24378ST  26075.70049769  .00000000  00000+0  00000-0 0  9990
2 10031  55.0000  90.0000 0000000   0.0000  72.0000  7.15312845    12
CTC2_L_00586004-03
1 10032U 26480KY  26075.70049769  .00000000  00000+0  00000-0 0  9997
2 10032  55.0000  90.0000 0000000   0.0000 108.0000  7.15312845    13
CTC2_L_00586004-04
1 10033U 24592DC  26075.70049769  .00000000  00000+0  00000-0 0  9990
2 10033  55.0000  90.0000 0000000   0.0000 144.0000  7.15312845    14
CTC2_L_00586004-05
1 10034U 23246AP  26075.70049769  .00000000  00000+0  00000-0 0  9996
2 10034  55.0000  90.0000 0000000   0.0000 180.0000  7.15312845    15
CTC2_L_00586004-06
1 10035U 23890WF  26075.70049769  .00000000  00000+0  00000-0 0  9992
2 10035  55.0000  90.0000 0000000   0.0000 216.0000  7.15312845    16
CTC2_L_00586004-07
1 10036U 25040TQ  26075.70049769  .00000000  00000+0  00000-0 0  9992
2 10036  55.0000  90.0000 0000000   0.0000 252.0000  7.15312845    17
CTC2_L_00586004-08
1 10037U 25389FL  26075.70049769  .00000000  00000+0  00000-0 0  9999
2 10037  55.0000  90.0000 0000000   0.0000 288.0000  7.15312845    17
CTC2_L_00586004-09
1 10038U 25255NK  26075.70049769  .00000000  00000+0  00000-0 0  9992
2 10038  55.0000  90.0000 0000000   0.0000 324.0000  7.15312845    19
CTC2_L_00586004-10
1 10039U 24833EU  26075.70049769  .00000000  00000+0  00000-0 0  9994
2 10039  55.0000  90.0000 0000000   0.0000   0.0000  7.15312845    11
CTC2_L_00586005-01
1 10040U 23100PT  26075.70049769  .00000000  00000+0  00000-0 0  9992
2 10040  55.0000 120.0000 0000000   0.0000  48.0000  7.15312845    19
CTC2_L_00586005-02
1 10041U 24851YD  26075.70049769  .00000000  00000+0  00000-0 0  9997
2 10041  55.0000 120.0000 0000000   0.0000  84.0000  7.15312845    10
CTC2_L_00586005-03
1 10042U 22259RE  26075.70049769  .00000000  00000+0  00000-0 0  9998
2 10042  55.0000 120.0000 0000000   0.0000 120.0000  7.15312845    12
CTC2_L_00586005-04
1 10043U 23134GF  26075.70049769  .00000000  00000+0  00000-0 0  9992
2 10043  55.0000 120.0000 0000000   0.0000 156.0000  7.15312845    12
CTC2_L_00586005-05
1 10044U 26910H   26075.70049769  .00000000  00000+0  00000-0 0  9998
2 10044  55.0000 120.0000 0000000   0.0000 192.0000  7.15312845    13
CTC2_L_00586005-06
1 10045U 26655KK  26075.70049769  .00000000  00000+0  00000-0 0  9995
2 10045  55.0000 120.0000 0000000   0.0000 228.0000  7.15312845    14
CTC2_L_00586005-07
1 10046U 22986CR  26075.70049769  .00000000  00000+0  00000-0 0  9999
2 10046  55.0000 120.0000 0000000   0.0000 264.0000  7.15312845    15
CTC2_L_00586005-08
1 10047U 22721U   26075.70049769  .00000000  00000+0  00000-0 0  9997
2 10047  55.0000 120.0000 0000000   0.0000 300.0000  7.15312845    17
CTC2_L_00586005-09
1 10048U 25410DO  26075.70049769  .00000000  00000+0  00000-0 0  9996
2 10048  55.0000 120.0000 0000000   0.0000 336.0000  7.15312845    17
CTC2_L_00586005-10
1 10049U 22945ZV  26075.70049769  .00000000  00000+0  00000-0 0  9997
2 10049  55.0000 120.0000 0000000   0.0000  12.0000  7.15312845    19
CTC2_L_00586006-01
1 10050U 22933SJ  26075.70049769  .00000000  00000+0  00000-0 0  9996
2 10050  55.0000 150.0000 0000000   0.0000  60.0000  7.15312845    17
CTC2_L_00586006-02
1 10051U 25677GO  26075.70049769  .00000000  00000+0  00000-0 0  9995
2 10051  55.0000 150.0000 0000000   0.0000  96.0000  7.15312845    17
CTC2_L_00586006-03
1 10052U 26236ZA  26075.70049769  .00000000  00000+0  00000-0 0  9998
2 10052  55.0000 150.0000 0000000   0.0000 132.0000  7.15312845    19
CTC2_L_00586006-04
1 10053U 24030XV  26075.70049769  .00000000  00000+0  00000-0 0  9999
2 10053  55.0000 150.0000 0000000   0.0000 168.0000  7.15312845    19
CTC2_L_00586006-05
1 10054U 22848ZL  26075.70049769  .00000000  00000+0  00000-0 0  9995
2 10054  55.0000 150.0000 0000000   0.0000 204.0000  7.15312845    11
CTC2_L_00586006-06
1 10055U 22051CX  26075.70049769  .00000000  00000+0  00000-0 0  9992
2 10055  55.0000 150.0000 0000000   0.0000 240.0000  7.15312845    12
CTC2_L_00586006-07
1 10056U 25218JK  26075.70049769  .00000000  00000+0  00000-0 0  9991
2 10056  55.0000 150.0000 0000000   0.0000 276.0000  7.15312845    12
CTC2_L_00586006-08
1 10057U 24898HN  26075.70049769  .00000000  00000+0  00000-0 0  9995
2 10057  55.0000 150.0000 0000000   0.0000 312.0000  7.15312845    14
CTC2_L_00586006-09
1 10058U 24820QK  26075.70049769  .00000000  00000+0  00000-0 0  9991
2 10058  55.0000 150.0000 0000000   0.0000 348.0000  7.15312845    14
CTC2_L_00586006-10
1 10059U 26987GJ  26075.70049769  .00000000  00000+0  00000-0 0  9998
2 10059  55.0000 150.0000 0000000   0.0000  24.0000  7.15312845    16
CTC2_L_00586007-01
1 10060U 24418GG  26075.70049769  .00000000  00000+0  00000-0 0  9997
2 10060  55.0000 180.0000 0000000   0.0000  72.0000  7.15312845    14
CTC2_L_00586007-02
1 10061U 22765YW  26075.70049769  .00000000  00000+0  00000-0 0  9991
2 10061  55.0000 180.0000 0000000   0.0000 108.0000  7.15312845    15
